{"type":"FeatureCollection","features":[{"type":"Feature","properties":{"country":"Chile","name":"Torres del Paine National Park","nationalParkName":"Torres del Paine National Park","source":"OpenStreetMap Nominatim","sourceElementId":"relation/2622290","sourceName":"Parque Nacional Torres del Paine, Región de Magallanes y de la Antártica Chilena, Chile","sourceUrl":"https://www.openstreetmap.org/relation/2622290"},"geometry":{"type":"Polygon","coordinates":[[[-73.505636,-51.2301595],[-73.4309511,-51.2721988],[-73.3907963,-51.3011146],[-73.3833183,-51.3009384],[-73.3809043,-51.3036785],[-73.3760978,-51.3061334],[-73.364634,-51.3076928],[-73.3612652,-51.3109992],[-73.361056,-51.3135577],[-73.3591409,-51.3146392],[-73.3596022,-51.317858],[-73.3580841,-51.3212844],[-73.3538516,-51.3223754],[-73.3515073,-51.3248629],[-73.3443244,-51.3260261],[-73.3416582,-51.3299848],[-73.3349205,-51.3295156],[-73.3231617,-51.3308529],[-73.3170946,-51.3299397],[-73.3161236,-51.3277643],[-73.3096648,-51.3246483],[-73.3120091,-51.3229822],[-73.3111132,-51.3215306],[-73.299789,-51.3191201],[-73.2975037,-51.3170012],[-73.2929171,-51.3158511],[-73.2870699,-51.3178092],[-73.2855786,-51.3141613],[-73.2784332,-51.3154555],[-73.2715507,-51.3127395],[-73.2714916,-51.3146023],[-73.2672323,-51.3150599],[-73.2569755,-51.3109825],[-73.2516326,-51.3125484],[-73.2492669,-51.3109724],[-73.2473249,-51.3059743],[-73.2447897,-51.3033106],[-73.2463111,-51.2994592],[-73.244337,-51.2977135],[-73.2436396,-51.292727],[-73.2412818,-51.2899586],[-73.2356103,-51.2901703],[-73.2337865,-51.2912768],[-73.2301441,-51.3008236],[-73.2313401,-51.3041383],[-73.228662,-51.3058685],[-73.2153904,-51.3063045],[-73.2023656,-51.3011866],[-73.1906444,-51.3024443],[-73.1801891,-51.2976715],[-73.1780702,-51.2949444],[-73.1717241,-51.291043],[-73.166467,-51.2899695],[-73.1600672,-51.2863697],[-73.1594664,-51.2832326],[-73.1569612,-51.2821455],[-73.1578624,-51.2799711],[-73.1547403,-51.2766021],[-73.155781,-51.2719641],[-73.1457335,-51.271058],[-73.1416994,-51.2689301],[-73.1362975,-51.2713131],[-73.1250644,-51.2722796],[-73.1173549,-51.2764644],[-73.1099764,-51.2771211],[-73.1091967,-51.2748603],[-73.1071528,-51.2737193],[-73.1083384,-51.2699302],[-73.1054469,-51.2695711],[-73.103961,-51.2669699],[-73.104079,-51.2635999],[-73.1125814,-51.2631132],[-73.1185147,-51.2614247],[-73.11955,-51.2600653],[-73.1170073,-51.2572285],[-73.1175008,-51.2541977],[-73.1150278,-51.2521421],[-73.1110635,-51.2513237],[-73.111504,-51.2491689],[-73.1099597,-51.2484841],[-73.1028585,-51.2499068],[-73.0998557,-51.2553139],[-73.0955313,-51.2603277],[-73.0934386,-51.2611683],[-73.0852114,-51.2577434],[-73.0800087,-51.2569009],[-73.0770921,-51.2545454],[-73.0742487,-51.2497457],[-73.0749288,-51.2479679],[-73.0782437,-51.2477006],[-73.0786233,-51.2457175],[-73.0752879,-51.2416787],[-73.0713344,-51.2403421],[-73.0606806,-51.2405704],[-73.0525482,-51.2345619],[-73.0468163,-51.2345518],[-73.0449897,-51.233529],[-73.041063,-51.2344712],[-73.0406284,-51.2320427],[-73.0367392,-51.2323215],[-73.0324316,-51.2347735],[-73.0293199,-51.240169],[-73.0183178,-51.2367215],[-73.0160004,-51.2379609],[-73.0137473,-51.2427819],[-73.0094612,-51.2436265],[-73.0034772,-51.2395545],[-72.9958158,-51.2381598],[-72.99568,-51.2360431],[-72.9938453,-51.2340748],[-72.989645,-51.2339472],[-72.9869628,-51.2358651],[-72.9836465,-51.2359154],[-72.9792052,-51.2283248],[-72.975473,-51.2288685],[-72.973849,-51.2314543],[-72.9739008,-51.2338187],[-72.9711864,-51.2339399],[-72.9690426,-51.2303395],[-72.9683317,-51.2256414],[-72.9746953,-51.2234911],[-72.9699896,-51.2211019],[-72.9661059,-51.2172001],[-72.9671359,-51.2171665],[-72.9580379,-51.213067],[-72.9511553,-51.2122403],[-72.9486072,-51.2095922],[-72.9368269,-51.2066448],[-72.8388752,-51.2145121],[-72.8183846,-51.1260567],[-72.8228326,-51.1208477],[-72.819299,-51.1207524],[-72.8201556,-51.1136126],[-72.8151804,-51.1051129],[-72.8034019,-51.0993768],[-72.783379,-51.0698251],[-72.7788904,-51.0691734],[-72.7767742,-51.0699942],[-72.7722976,-51.068629],[-72.7672523,-51.0697835],[-72.752468,-51.0667345],[-72.7349532,-51.067766],[-72.7328771,-51.0647388],[-72.7239803,-51.0635709],[-72.7187097,-51.0599075],[-72.7133292,-51.0539833],[-72.6944572,-51.0483281],[-72.6792544,-51.0469353],[-72.6735359,-51.0437448],[-72.6607096,-51.0441798],[-72.6476097,-51.0419597],[-72.6325572,-51.0457363],[-72.6059872,-51.041598],[-72.593531,-51.0350591],[-72.5918466,-51.0308034],[-72.5922221,-51.0219668],[-72.596409,-51.0113246],[-72.6014972,-51.0061334],[-72.6181591,-51.011247],[-72.6238132,-51.0108555],[-72.6234081,-51.0093755],[-72.620573,-51.0088979],[-72.6205301,-51.0070532],[-72.6288289,-51.0034397],[-72.6276957,-50.9994106],[-72.6346788,-50.992589],[-72.6475212,-50.9923678],[-72.6512307,-50.9954184],[-72.65571,-50.9961038],[-72.665323,-50.9952293],[-72.6739222,-50.9918934],[-72.6770281,-50.9923175],[-72.679807,-50.9951449],[-72.6867753,-50.9980822],[-72.6887441,-51.0005365],[-72.6875961,-51.0025451],[-72.6884598,-51.0043613],[-72.6949856,-51.0044119],[-72.7088285,-51.0115609],[-72.7100676,-51.0158774],[-72.7161187,-51.0199945],[-72.7211988,-51.0220023],[-72.7291971,-51.0228425],[-72.7308172,-51.0252348],[-72.7339232,-51.024975],[-72.7347493,-51.0263887],[-72.7526021,-51.0287572],[-72.757355,-51.0315507],[-72.757709,-51.0340943],[-72.7613354,-51.0365231],[-72.7640618,-51.037466],[-72.7676708,-51.0365349],[-72.7722299,-51.0265789],[-72.7815554,-51.0205946],[-72.7949439,-51.0186625],[-72.7951882,-51.0155747],[-72.7930717,-51.0135423],[-72.7962602,-51.0090514],[-72.7928431,-51.0039578],[-72.7904648,-50.9943154],[-72.7938125,-50.9889566],[-72.7946948,-50.9768194],[-72.792586,-50.9741918],[-72.7882454,-50.9718264],[-72.7783757,-50.9711294],[-72.7570412,-50.9610572],[-72.7362398,-50.9463003],[-72.7281991,-50.9434965],[-72.725125,-50.9353453],[-72.6998281,-50.9320358],[-72.7075123,-50.8954044],[-72.7151632,-50.8814823],[-72.7121596,-50.8795009],[-72.7229619,-50.8756049],[-72.7249816,-50.8679838],[-72.7521929,-50.8639976],[-72.7744654,-50.8125759],[-72.7763185,-50.8055554],[-72.8387005,-50.8006044],[-72.8777048,-50.7943037],[-72.8903039,-50.7779049],[-72.9300045,-50.782605],[-72.9457051,-50.7553038],[-72.9833616,-50.750389],[-72.9951782,-50.7529297],[-73.0015869,-50.760498],[-73.0061562,-50.7622055],[-73.0095215,-50.7612915],[-73.0270233,-50.7618652],[-73.0285239,-50.7599488],[-73.0327759,-50.7593994],[-73.0431479,-50.7618652],[-73.0433744,-50.7641038],[-73.0563965,-50.7728882],[-73.0632935,-50.7822876],[-73.0639885,-50.7850583],[-73.0685045,-50.7889068],[-73.0842896,-50.7824097],[-73.0916748,-50.7750244],[-73.0958358,-50.7727368],[-73.1006638,-50.7754236],[-73.1438889,-50.7805556],[-73.1694444,-50.8011111],[-73.1913889,-50.8111111],[-73.2008637,-50.8205658],[-73.4181977,-50.9089865],[-73.3603053,-51.0533758],[-73.4693033,-51.1860271],[-73.505636,-51.2301595]]]}},{"type":"Feature","properties":{"country":"Argentina","name":"Los Glaciares National Park","nationalParkName":"Los Glaciares National Park","source":"OpenStreetMap Nominatim","sourceElementId":"relation/3642560","sourceName":"Parque Nacional Los Glaciares, Santa Cruz, Argentina","sourceUrl":"https://www.openstreetmap.org/relation/3642560"},"geometry":{"type":"Polygon","coordinates":[[[-73.5605371,-49.9424656],[-73.5600114,-49.9460973],[-73.5545075,-49.9493387],[-73.5504574,-49.9507401],[-73.537041,-49.9510439],[-73.5345465,-49.9523624],[-73.5298902,-49.9517687],[-73.5266876,-49.9531114],[-73.5243112,-49.9560037],[-73.5096878,-49.9611114],[-73.5041195,-49.9655388],[-73.4997797,-49.9672468],[-73.4962311,-49.9667465],[-73.4896946,-49.9687926],[-73.4776086,-49.9700934],[-73.472625,-49.9675091],[-73.4535706,-49.9631129],[-73.4516045,-49.9605489],[-73.4454274,-49.9644794],[-73.4470475,-49.9719876],[-73.4445047,-49.9736713],[-73.4450895,-49.9771764],[-73.4437591,-49.9800362],[-73.4415543,-49.9815644],[-73.4468195,-49.983622],[-73.4480721,-49.9852207],[-73.4438932,-49.990922],[-73.4415543,-50.0014881],[-73.4356642,-50.0102419],[-73.4479916,-50.0162332],[-73.4470153,-50.0228028],[-73.4454811,-50.0250016],[-73.4470904,-50.0327278],[-73.4488177,-50.0349606],[-73.4602869,-50.0403769],[-73.4608448,-50.0461991],[-73.4638166,-50.0505739],[-73.4616655,-50.0539253],[-73.4767878,-50.0534018],[-73.4974653,-50.0499389],[-73.4946138,-50.0521411],[-73.4941417,-50.0551549],[-73.5003001,-50.059739],[-73.4829355,-50.070679],[-73.4814978,-50.0838299],[-73.4756828,-50.0892819],[-73.4773135,-50.0903695],[-73.4845877,-50.0896123],[-73.4987927,-50.0941208],[-73.5048974,-50.0981609],[-73.5076439,-50.1043821],[-73.5142154,-50.1063948],[-73.5144836,-50.1091781],[-73.5120159,-50.1158107],[-73.5179544,-50.118363],[-73.5198856,-50.1219745],[-73.519789,-50.1240794],[-73.5141993,-50.1288598],[-73.5160124,-50.1319684],[-73.5162377,-50.1368443],[-73.5205615,-50.1406882],[-73.5180831,-50.1471582],[-73.521806,-50.1536893],[-73.5114312,-50.1563083],[-73.5054767,-50.1564045],[-73.5007453,-50.154741],[-73.4978271,-50.155315],[-73.4868997,-50.164759],[-73.4780967,-50.1670441],[-73.4801728,-50.1721775],[-73.4697712,-50.1810411],[-73.4614509,-50.1852078],[-73.4432441,-50.1800518],[-73.4309006,-50.1826281],[-73.4287334,-50.1861043],[-73.4298063,-50.1894016],[-73.4221137,-50.1950477],[-73.4225267,-50.1980525],[-73.4161323,-50.2000751],[-73.4216362,-50.202592],[-73.4229827,-50.2054521],[-73.4314424,-50.2067877],[-73.4353906,-50.2105299],[-73.4438449,-50.21329],[-73.447938,-50.2174951],[-73.4505344,-50.2245176],[-73.4485012,-50.227699],[-73.4499496,-50.2301938],[-73.4548259,-50.2338587],[-73.4515107,-50.242903],[-73.4407175,-50.2493866],[-73.4272222,-50.2522222],[-73.3622687,-50.3010017],[-73.4044444,-50.3358333],[-73.4255556,-50.3361111],[-73.4377778,-50.3436111],[-73.4283333,-50.355],[-73.4361111,-50.3627778],[-73.4169444,-50.3816667],[-73.4066667,-50.38],[-73.3975,-50.3705556],[-73.3700466,-50.3724697],[-73.3773744,-50.3766573],[-73.3788765,-50.3809677],[-73.3839512,-50.3874052],[-73.3837795,-50.3903671],[-73.3875667,-50.3920144],[-73.3755556,-50.4161111],[-73.3575,-50.4288889],[-73.3591032,-50.4365297],[-73.3585882,-50.4451801],[-73.3633733,-50.4514654],[-73.3638883,-50.4542526],[-73.3596397,-50.4612197],[-73.3540392,-50.4654541],[-73.3517003,-50.4731433],[-73.357451,-50.4818417],[-73.3648861,-50.487501],[-73.3577541,-50.4879464],[-73.3505362,-50.4908832],[-73.347795,-50.4932414],[-73.3387667,-50.4952822],[-73.3372164,-50.4971181],[-73.3399844,-50.4995408],[-73.3517218,-50.5025366],[-73.3589101,-50.5059076],[-73.360734,-50.5079546],[-73.3618444,-50.5142793],[-73.3644033,-50.5183043],[-73.3596933,-50.5224858],[-73.3574724,-50.5350692],[-73.3497208,-50.538015],[-73.3487284,-50.5456856],[-73.3427203,-50.5476662],[-73.3388016,-50.5558754],[-73.3311948,-50.5621869],[-73.3329356,-50.5709149],[-73.3012211,-50.5730613],[-73.287971,-50.5877189],[-73.2873166,-50.5898782],[-73.2613528,-50.5937265],[-73.2430279,-50.5942304],[-73.2397342,-50.5956811],[-73.2362795,-50.599311],[-73.2367516,-50.6087487],[-73.235786,-50.6096611],[-73.226881,-50.6101377],[-73.2206047,-50.6072576],[-73.1936111,-50.6152778],[-73.1688889,-50.6383333],[-73.1683231,-50.6414053],[-73.1457496,-50.6515557],[-73.1452346,-50.6540861],[-73.1525302,-50.6578271],[-73.1536246,-50.6597179],[-73.153882,-50.6635673],[-73.1514788,-50.6688715],[-73.1600833,-50.6734001],[-73.1639564,-50.6785197],[-73.165952,-50.6878464],[-73.1725073,-50.6946499],[-73.1705761,-50.7002904],[-73.1724215,-50.7026212],[-73.1804681,-50.704381],[-73.1831718,-50.7100951],[-73.1839442,-50.7175883],[-73.1870771,-50.7226555],[-73.1864548,-50.7259699],[-73.1902528,-50.7296237],[-73.1942439,-50.7365774],[-73.1983745,-50.7399791],[-73.1947804,-50.7428035],[-73.1908536,-50.7441274],[-73.1864119,-50.7439644],[-73.1819058,-50.746775],[-73.1792343,-50.7502507],[-73.1803921,-50.7533217],[-72.9958499,-50.7533494],[-72.986876,-50.751751],[-72.9911525,-50.6913774],[-72.9886481,-50.6885541],[-72.9895631,-50.6871673],[-72.9882288,-50.6865379],[-72.9849377,-50.6901786],[-72.9778138,-50.6915541],[-72.9735813,-50.6887266],[-72.9643974,-50.6873604],[-72.9621336,-50.6779019],[-72.9619499,-50.6666692],[-72.9601568,-50.66578],[-72.9600857,-50.6636514],[-72.9575859,-50.662815],[-72.9572278,-50.6606293],[-72.9521182,-50.6549105],[-72.9465379,-50.6528286],[-72.9420465,-50.6422133],[-72.9433984,-50.6378467],[-72.9416442,-50.6339374],[-72.9428887,-50.6324556],[-72.9405525,-50.6308564],[-72.940008,-50.6279367],[-72.937232,-50.6241244],[-72.9354148,-50.617052],[-72.9363877,-50.6154701],[-72.9331644,-50.6116568],[-72.9338457,-50.6080432],[-72.9325341,-50.6041331],[-72.9311219,-50.6048225],[-72.9290499,-50.6015974],[-72.9319346,-50.599139],[-72.9324228,-50.5959127],[-72.9341018,-50.5948272],[-72.9342105,-50.5886811],[-72.9334568,-50.5879539],[-72.9320218,-50.5889314],[-72.9286931,-50.5870752],[-72.9286475,-50.5899727],[-72.9264495,-50.5909808],[-72.9262919,-50.5930641],[-72.9241817,-50.5932233],[-72.9248495,-50.5961545],[-72.9229009,-50.5964252],[-72.9212165,-50.5901779],[-72.9217958,-50.5865464],[-72.9230216,-50.5855034],[-72.9175472,-50.5807143],[-72.9174212,-50.5780564],[-72.9186107,-50.5774432],[-72.9171543,-50.5719174],[-72.9149549,-50.5718356],[-72.9126737,-50.5697956],[-72.912671,-50.5706994],[-72.9105346,-50.5704162],[-72.9109624,-50.5677888],[-72.909923,-50.5672871],[-72.9073857,-50.5690597],[-72.9045653,-50.5671261],[-72.9018,-50.5677411],[-72.9002121,-50.5651336],[-72.8967762,-50.5663347],[-72.8926483,-50.5633233],[-72.8867528,-50.5641548],[-72.8732358,-50.5615658],[-72.8667542,-50.5589708],[-72.864351,-50.5568416],[-72.8572485,-50.5566184],[-72.854522,-50.5551742],[-72.8544912,-50.5532647],[-72.8537308,-50.5532877],[-72.8544496,-50.5554153],[-72.8534465,-50.5551648],[-72.8535336,-50.5536481],[-72.8494889,-50.5516781],[-72.8566879,-50.5479175],[-72.8604645,-50.5502721],[-72.8659388,-50.5499125],[-72.8674006,-50.5466981],[-72.8648019,-50.5415113],[-72.8666537,-50.5407058],[-72.8648981,-50.5394504],[-72.869643,-50.5366427],[-72.8736153,-50.5396072],[-72.8695112,-50.5445509],[-72.8753252,-50.5566013],[-72.8780115,-50.5569609],[-72.8815118,-50.5548478],[-72.8828569,-50.5554196],[-72.8834671,-50.5586649],[-72.8863451,-50.5581656],[-72.8878713,-50.5593814],[-72.8916787,-50.5595748],[-72.894149,-50.5577635],[-72.8986189,-50.5587714],[-72.8988871,-50.5541491],[-72.8961159,-50.5524187],[-72.8933084,-50.5474662],[-72.894,-50.5402574],[-72.89302,-50.5373431],[-72.8881036,-50.5308298],[-72.8837323,-50.5273769],[-72.882873,-50.5234725],[-72.8812589,-50.5240738],[-72.8812786,-50.5283195],[-72.8762761,-50.5303977],[-72.8752515,-50.5284386],[-72.8666657,-50.5270882],[-72.8636134,-50.5247675],[-72.8607997,-50.5163059],[-72.8613482,-50.5134419],[-72.8593205,-50.512062],[-72.8581175,-50.5129848],[-72.8531849,-50.5102642],[-72.8524795,-50.5121746],[-72.8504786,-50.512601],[-72.847384,-50.5110399],[-72.8306582,-50.5109566],[-72.8231818,-50.5038283],[-72.8128901,-50.497648],[-72.8057352,-50.4959582],[-72.8015933,-50.4908747],[-72.7986838,-50.4905726],[-72.795559,-50.4953154],[-72.7899612,-50.4926374],[-72.7787054,-50.4920423],[-72.7735904,-50.4871861],[-72.7731706,-50.4797535],[-72.766555,-50.4739158],[-72.7626121,-50.4726013],[-72.7549624,-50.4668088],[-72.7543616,-50.4643938],[-72.7490777,-50.4640728],[-72.7451134,-50.4542902],[-72.7430487,-50.4532217],[-72.7442162,-50.4540972],[-72.7430534,-50.4543687],[-72.7439909,-50.454934],[-72.7429622,-50.4568585],[-72.7394982,-50.4570156],[-72.7410579,-50.4554787],[-72.7410927,-50.4515731],[-72.7471636,-50.4396576],[-72.7437535,-50.4443295],[-72.7330971,-50.4453475],[-72.7229999,-50.4426368],[-72.72635,-50.4442586],[-72.7242351,-50.4437351],[-72.7187929,-50.441157],[-72.7151155,-50.4372848],[-72.7201688,-50.4300852],[-72.726,-50.4274368],[-72.7293152,-50.427635],[-72.727046,-50.426133],[-72.7328637,-50.4276042],[-72.7351517,-50.4258579],[-72.7429408,-50.4241115],[-72.7468823,-50.4248454],[-72.7577519,-50.4334904],[-72.7588141,-50.4363025],[-72.7651066,-50.4423276],[-72.7640444,-50.4433901],[-72.7657302,-50.4463707],[-72.7718818,-50.4499403],[-72.7730459,-50.4523774],[-72.7775359,-50.4545728],[-72.7781662,-50.4579019],[-72.7857918,-50.4621801],[-72.7977423,-50.4656803],[-72.8044894,-50.4662309],[-72.8132442,-50.4706987],[-72.8189278,-50.4716411],[-72.825408,-50.4706595],[-72.8320143,-50.4722966],[-72.8342137,-50.4740105],[-72.8373116,-50.4743417],[-72.8376241,-50.4767152],[-72.8408763,-50.4768851],[-72.8433882,-50.4801648],[-72.846576,-50.4814765],[-72.8582717,-50.48223],[-72.8724848,-50.4854445],[-72.883459,-50.4851331],[-72.889954,-50.4878482],[-72.9088958,-50.4891776],[-72.9186577,-50.4884293],[-72.9328533,-50.4906503],[-72.9360679,-50.4895061],[-72.9540065,-50.4897143],[-72.962096,-50.491617],[-72.9687607,-50.4870125],[-72.970144,-50.487675],[-72.9728906,-50.4835941],[-72.9761528,-50.4840848],[-72.981711,-50.4825628],[-72.9842618,-50.4773425],[-72.9880866,-50.4744509],[-72.9970653,-50.4743703],[-72.9975428,-50.4771552],[-73.0035308,-50.4797424],[-73.0095591,-50.4787643],[-73.0115949,-50.4799284],[-73.0168614,-50.4792645],[-73.0192821,-50.4802809],[-73.0236232,-50.4762048],[-73.024959,-50.477928],[-73.0233228,-50.4786039],[-73.0238217,-50.4799369],[-73.0291915,-50.4813305],[-73.0326904,-50.479494],[-73.0363369,-50.4741966],[-73.036298,-50.4714785],[-73.0349207,-50.4722241],[-73.0347866,-50.4643989],[-73.0237278,-50.4607211],[-73.0222178,-50.4565136],[-73.0218691,-50.4492674],[-73.0265281,-50.4216422],[-73.0295268,-50.4155768],[-73.0308867,-50.4085671],[-73.0342421,-50.4040985],[-73.0335125,-50.4000946],[-73.0367285,-50.3912153],[-73.0355696,-50.3900858],[-73.0363101,-50.3813782],[-73.033931,-50.3718436],[-73.0344084,-50.3692535],[-73.0309618,-50.3620025],[-73.0305836,-50.3560493],[-73.0291271,-50.3531127],[-73.0225718,-50.3498866],[-73.0171108,-50.3500817],[-73.0155297,-50.3481109],[-73.0113964,-50.3465704],[-73.0036944,-50.3461844],[-72.9925606,-50.3420695],[-72.9708427,-50.3406795],[-72.967785,-50.3382794],[-72.9628658,-50.3312514],[-72.9493046,-50.3220167],[-72.9393965,-50.3176941],[-72.9288492,-50.3178869],[-72.9271187,-50.3216948],[-72.9255134,-50.3226341],[-72.9157475,-50.322587],[-72.9097286,-50.3255649],[-72.8963095,-50.3262704],[-72.8777406,-50.3238182],[-72.8676206,-50.3256814],[-72.8575489,-50.3237378],[-72.8514281,-50.3203838],[-72.842373,-50.3222119],[-72.831282,-50.3195746],[-72.8227365,-50.3189649],[-72.8096581,-50.3116155],[-72.81321,-50.1941785],[-72.8219074,-50.1907801],[-72.8277432,-50.1901313],[-72.827915,-50.1972116],[-72.8284928,-50.2004605],[-72.8295481,-50.2009725],[-72.8281781,-50.2029458],[-72.8285356,-50.2049071],[-72.8321918,-50.2071418],[-72.8296136,-50.208405],[-72.8302591,-50.2116598],[-72.8340827,-50.2091514],[-72.8347403,-50.2046892],[-72.8383119,-50.2023282],[-72.8362396,-50.2017853],[-72.8379789,-50.1946966],[-72.8394354,-50.1939868],[-72.8376496,-50.1913204],[-72.840106,-50.1905362],[-72.8419969,-50.1916491],[-72.8405385,-50.1947204],[-72.841465,-50.1965957],[-72.8429778,-50.1969528],[-72.8410238,-50.1981341],[-72.8431387,-50.1985402],[-72.8378467,-50.2030392],[-72.8405383,-50.2035114],[-72.8433681,-50.2084786],[-72.8440829,-50.2164516],[-72.8452362,-50.2181979],[-72.8429858,-50.2189693],[-72.842043,-50.2231825],[-72.8392763,-50.2245665],[-72.8379661,-50.2281142],[-72.8393608,-50.2290477],[-72.8443846,-50.2278526],[-72.847492,-50.2283613],[-72.8502211,-50.2249294],[-72.8481692,-50.2176461],[-72.851133,-50.2153737],[-72.8577849,-50.2139603],[-72.8621958,-50.2170411],[-72.8607675,-50.2167682],[-72.8617372,-50.2195752],[-72.8584982,-50.2220695],[-72.8588576,-50.2242224],[-72.8653496,-50.2261543],[-72.8703036,-50.2322908],[-72.8779028,-50.235926],[-72.8797119,-50.2352414],[-72.8776426,-50.2310181],[-72.8803489,-50.2273773],[-72.8778246,-50.2249761],[-72.8807148,-50.2231813],[-72.876439,-50.2205661],[-72.8756737,-50.2171798],[-72.8804843,-50.2163679],[-72.8814017,-50.2177622],[-72.8802899,-50.2186227],[-72.8836374,-50.2199875],[-72.8856655,-50.2176548],[-72.8846744,-50.2175505],[-72.8856916,-50.2171873],[-72.8847104,-50.2158298],[-72.887326,-50.2141353],[-72.8866381,-50.2113926],[-72.8891891,-50.2110388],[-72.8901483,-50.2128722],[-72.8931229,-50.2137217],[-72.8933349,-50.2078658],[-72.892879,-50.2063225],[-72.8910296,-50.2057534],[-72.8922594,-50.2046238],[-72.8999653,-50.2090082],[-72.9018804,-50.208767],[-72.9024021,-50.2065465],[-72.9038948,-50.2061972],[-72.9069042,-50.2091901],[-72.9090674,-50.2084108],[-72.9102114,-50.2099017],[-72.9131196,-50.2103728],[-72.9229358,-50.2056118],[-72.9267177,-50.2070298],[-72.937409,-50.202022],[-72.9424623,-50.2024633],[-72.945697,-50.1992304],[-72.9545939,-50.1981453],[-72.9568872,-50.1995866],[-72.9632554,-50.2001034],[-72.9637443,-50.2031234],[-72.9597263,-50.2019499],[-72.9618949,-50.2066311],[-72.9645167,-50.2076855],[-72.9653603,-50.2100416],[-72.9679251,-50.2104707],[-72.9666964,-50.2120449],[-72.9680049,-50.2117255],[-72.9686641,-50.2130759],[-72.972617,-50.2140358],[-72.9741502,-50.21565],[-72.9781484,-50.2162808],[-72.9797396,-50.2150613],[-72.9897248,-50.2141619],[-72.9999501,-50.208482],[-73.002284,-50.2032333],[-73.0061379,-50.20178],[-73.0081147,-50.1988788],[-73.0084285,-50.195635],[-73.0105475,-50.1946717],[-73.0101854,-50.1938956],[-73.0133678,-50.1919637],[-73.0170887,-50.1916491],[-73.0180013,-50.1928215],[-73.0194175,-50.1909377],[-73.0224256,-50.191422],[-73.0216974,-50.1879505],[-73.0225557,-50.1863727],[-73.0266112,-50.1895081],[-73.0296327,-50.1888873],[-73.0301464,-50.1870669],[-73.0311039,-50.1877238],[-73.03169,-50.1847244],[-73.0359305,-50.1824178],[-73.0364911,-50.1799633],[-73.0388508,-50.178895],[-73.040776,-50.1741978],[-73.0406445,-50.1673294],[-73.0418864,-50.1665201],[-73.0423611,-50.1600527],[-73.044169,-50.1564423],[-73.0427165,-50.1547806],[-73.0428634,-50.1503684],[-73.0438008,-50.1486583],[-73.0462182,-50.1477186],[-73.0475217,-50.1434403],[-73.0502509,-50.1276974],[-73.049933,-50.1217484],[-73.05182,-50.1207845],[-73.0525938,-50.1116388],[-73.0540676,-50.1104632],[-73.0536586,-50.104364],[-73.0567592,-50.1027524],[-73.0588554,-50.096322],[-73.0609864,-50.0957185],[-73.0594622,-50.088005],[-73.062931,-50.0827748],[-73.0628465,-50.0805347],[-73.0646476,-50.0789697],[-73.0697505,-50.0780312],[-73.0707698,-50.0714993],[-73.0759035,-50.0690065],[-73.0808119,-50.0701746],[-73.0839877,-50.072438],[-73.0861603,-50.0707797],[-73.0920249,-50.0709019],[-73.0926707,-50.069195],[-73.0940956,-50.0690882],[-73.0999529,-50.0634449],[-73.1031212,-50.0653892],[-73.107345,-50.0657775],[-73.1019196,-50.0703295],[-73.098996,-50.0750206],[-73.0967724,-50.0824409],[-73.0894017,-50.0882322],[-73.0839649,-50.1024535],[-73.0795037,-50.1091455],[-73.0800683,-50.1099716],[-73.0838791,-50.1092573],[-73.0880418,-50.099213],[-73.0951028,-50.0939591],[-73.0971546,-50.1013378],[-73.0987465,-50.1026445],[-73.097734,-50.112295],[-73.1004987,-50.1092048],[-73.1018633,-50.1100107],[-73.0996397,-50.1185668],[-73.103205,-50.1219552],[-73.1031839,-50.1234289],[-73.1044201,-50.122226],[-73.1041914,-50.1249358],[-73.110339,-50.120554],[-73.1094465,-50.1188703],[-73.1114911,-50.1153093],[-73.1118263,-50.1162359],[-73.114078,-50.1160334],[-73.1137683,-50.1143135],[-73.1165041,-50.1094276],[-73.1161366,-50.106987],[-73.1171726,-50.1067746],[-73.1153601,-50.1036578],[-73.1167026,-50.1022552],[-73.1138786,-50.1005419],[-73.1117311,-50.105139],[-73.1118089,-50.1110325],[-73.1117385,-50.1102502],[-73.1106582,-50.1119678],[-73.1084642,-50.1099591],[-73.1072491,-50.1042496],[-73.1111451,-50.0938034],[-73.1125183,-50.0925111],[-73.1165805,-50.092185],[-73.1185922,-50.0864424],[-73.121379,-50.0830691],[-73.1253306,-50.0844454],[-73.1281181,-50.0835549],[-73.128453,-50.0844135],[-73.1318222,-50.0829715],[-73.1337091,-50.0800124],[-73.1351603,-50.0693588],[-73.136385,-50.0674915],[-73.1357054,-50.0622553],[-73.1375134,-50.0593891],[-73.13791,-50.0532913],[-73.139287,-50.0512457],[-73.1397994,-50.0422478],[-73.1387037,-50.0417296],[-73.1378203,-50.0327558],[-73.1318084,-50.0393511],[-73.129438,-50.0394921],[-73.1293542,-50.0378155],[-73.132111,-50.0342255],[-73.132647,-50.0280378],[-73.1371947,-50.0265775],[-73.1394102,-50.0221695],[-73.1375333,-50.016683],[-73.1330335,-50.0167315],[-73.1304353,-50.0099713],[-73.1296594,-50.0017895],[-73.1282495,-49.9986956],[-73.1257947,-49.9981842],[-73.1245608,-49.9956266],[-73.1234101,-49.9903924],[-73.121754,-49.9888194],[-73.1200433,-49.9793791],[-73.1227979,-49.9745485],[-73.1289402,-49.9729192],[-73.1358978,-49.9689643],[-73.1431371,-49.9684856],[-73.1411952,-49.9660236],[-73.1417909,-49.9645436],[-73.1402759,-49.9587962],[-73.1410772,-49.9622882],[-73.1450763,-49.9678662],[-73.1505775,-49.9652351],[-73.1493223,-49.9626125],[-73.1504113,-49.9609371],[-73.1434523,-49.958109],[-73.1445949,-49.9556801],[-73.1479014,-49.9561487],[-73.1492123,-49.9546128],[-73.1508873,-49.956241],[-73.1522807,-49.9617731],[-73.1503684,-49.971728],[-73.1532372,-49.9788632],[-73.1524522,-49.992741],[-73.1563266,-49.9970185],[-73.1564647,-50.0036207],[-73.1570723,-50.0044427],[-73.1581165,-50.0036983],[-73.1597369,-50.0057472],[-73.1579658,-50.0093778],[-73.163852,-50.0147698],[-73.1677056,-50.0156352],[-73.1691964,-50.0138781],[-73.1693019,-50.0099092],[-73.1673866,-50.0074332],[-73.1693681,-50.0051544],[-73.1687444,-50.0038758],[-73.17255,-50.0000087],[-73.1764908,-49.9988976],[-73.1771397,-50.0002392],[-73.1793717,-50.0001764],[-73.1797875,-50.0016034],[-73.1818078,-49.9955234],[-73.1838611,-50.0010458],[-73.1832683,-50.0021156],[-73.1842607,-50.0022983],[-73.1853926,-50.0006588],[-73.1853309,-49.9970743],[-73.1881017,-49.9941293],[-73.1918326,-49.9928602],[-73.1897619,-49.9929671],[-73.1909367,-49.992505],[-73.1906793,-49.9908254],[-73.1929565,-49.9914566],[-73.1947582,-49.9867806],[-73.1949594,-49.9884172],[-73.1975886,-49.990515],[-73.197661,-49.9821577],[-73.1918903,-49.983177],[-73.1924696,-49.9814971],[-73.1941487,-49.9824388],[-73.1943351,-49.9785011],[-73.1976939,-49.9751268],[-73.200421,-49.9748305],[-73.2002333,-49.9760708],[-73.2018936,-49.9751617],[-73.2000053,-49.9772144],[-73.202709,-49.9774541],[-73.2032441,-49.9799681],[-73.2058083,-49.9815403],[-73.2043464,-49.9862671],[-73.2049432,-49.9987054],[-73.2061408,-49.9993172],[-73.2082075,-49.9973726],[-73.2083751,-49.9923399],[-73.2105182,-49.9898287],[-73.2113028,-49.9865401],[-73.2120605,-49.9876511],[-73.2129302,-49.9866039],[-73.2130837,-49.9884595],[-73.2153636,-49.9881766],[-73.2165371,-49.9953087],[-73.2197437,-49.9974002],[-73.2190865,-50.0020329],[-73.2154352,-50.0040125],[-73.21417,-50.0077399],[-73.2104686,-50.0094266],[-73.2085817,-50.0091094],[-73.205658,-50.0117019],[-73.2004948,-50.0099196],[-73.2014349,-50.0054359],[-73.2005793,-50.0034685],[-73.1990456,-50.0054411],[-73.198693,-50.0034612],[-73.1975772,-50.0034817],[-73.1956172,-50.0056497],[-73.194152,-50.0115993],[-73.1961219,-50.0178334],[-73.1942761,-50.0178429],[-73.1932703,-50.0231586],[-73.1913035,-50.0257495],[-73.1854583,-50.0264879],[-73.1905693,-50.0294972],[-73.1906417,-50.0361623],[-73.1930771,-50.0397241],[-73.1927875,-50.0443285],[-73.1914008,-50.0453706],[-73.1914946,-50.0475392],[-73.184366,-50.050623],[-73.1850547,-50.0547081],[-73.1836398,-50.0575977],[-73.1761068,-50.0598785],[-73.1736794,-50.0618302],[-73.1708497,-50.0618569],[-73.1697419,-50.0597665],[-73.171708,-50.059609],[-73.1720245,-50.0580506],[-73.1691773,-50.054014],[-73.1690419,-50.0578577],[-73.1669793,-50.0562338],[-73.1610824,-50.0628246],[-73.1603793,-50.0649304],[-73.1615706,-50.0679967],[-73.1602324,-50.0682186],[-73.1582361,-50.0711741],[-73.1545268,-50.0694777],[-73.1546554,-50.067337],[-73.1533407,-50.0662975],[-73.1525918,-50.0688361],[-73.1537012,-50.0762609],[-73.1505566,-50.0852086],[-73.1527085,-50.0930298],[-73.1646323,-50.0977351],[-73.1727085,-50.096719],[-73.1760156,-50.0949227],[-73.1780702,-50.0927632],[-73.1829035,-50.0803514],[-73.1865594,-50.0749285],[-73.1893273,-50.0736563],[-73.1907427,-50.0756409],[-73.1915696,-50.0752315],[-73.1923516,-50.0719527],[-73.1961374,-50.0687155],[-73.198963,-50.0633171],[-73.2078372,-50.0573813],[-73.2100737,-50.0539348],[-73.2127427,-50.0530615],[-73.2156764,-50.0542381],[-73.220196,-50.0505025],[-73.2298948,-50.0492336],[-73.2319771,-50.0473154],[-73.2452039,-50.0269376],[-73.2451522,-50.0208718],[-73.2474267,-50.017668],[-73.2471428,-50.0145663],[-73.2492815,-50.0133928],[-73.2487156,-50.0109293],[-73.2518477,-50.002894],[-73.2520831,-49.9991019],[-73.255688,-49.9996226],[-73.2606125,-49.9973967],[-73.2773548,-49.9955708],[-73.2807425,-49.9876076],[-73.2854296,-49.9874959],[-73.2865736,-49.9900063],[-73.2851241,-49.9909932],[-73.2865441,-49.9945505],[-73.2871047,-49.9921679],[-73.2900477,-49.9896071],[-73.2880181,-49.9888338],[-73.2902589,-49.9855346],[-73.29182,-49.9853173],[-73.2925824,-49.9877136],[-73.2916,-49.9877201],[-73.2913949,-49.9905711],[-73.2971562,-49.9914816],[-73.2978657,-49.9896795],[-73.2973085,-49.987113],[-73.1069972,-49.7832314],[-73.0370746,-49.7045507],[-73.0383429,-49.7017901],[-73.0379615,-49.697804],[-73.0395932,-49.6948198],[-73.0319163,-49.6845765],[-73.031353,-49.6780998],[-73.0289624,-49.675389],[-73.0278275,-49.6709496],[-73.0252134,-49.6682014],[-73.0171757,-49.6662709],[-73.0114196,-49.6669514],[-73.0088423,-49.6654514],[-72.9947917,-49.6667015],[-72.9878648,-49.670257],[-72.9800676,-49.6669097],[-72.9672211,-49.6650972],[-72.955538,-49.6651418],[-72.9498771,-49.6634375],[-72.9237533,-49.660135],[-72.9110065,-49.6556666],[-72.9107241,-49.6543335],[-72.9050783,-49.6509999],[-72.8995494,-49.6520692],[-72.898764,-49.6531527],[-72.9008852,-49.6544304],[-72.8986996,-49.6560554],[-72.8923992,-49.656486],[-72.8891856,-49.6544999],[-72.8890215,-49.6483609],[-72.8862312,-49.6468912],[-72.8927814,-49.6420326],[-72.8965419,-49.6366252],[-72.8967994,-49.6337489],[-72.8951781,-49.632305],[-72.8991366,-49.6281842],[-72.898764,-49.6255413],[-72.9094496,-49.6206803],[-72.9199603,-49.6135556],[-72.9282532,-49.6038537],[-72.9302609,-49.5987023],[-72.9267425,-49.5952841],[-72.9276105,-49.5939374],[-72.9324796,-49.5907075],[-72.9366427,-49.5907423],[-72.93875,-49.585471],[-72.9465526,-49.5768069],[-72.9507768,-49.5730264],[-72.9617607,-49.5672784],[-72.9635954,-49.5640742],[-72.9673283,-49.5621172],[-72.9642177,-49.5567391],[-72.9672425,-49.5549224],[-72.9702902,-49.549236],[-72.9748875,-49.5454876],[-72.9734856,-49.5456682],[-72.9804826,-49.5375265],[-72.9841197,-49.5263714],[-72.9826069,-49.5260475],[-72.9822582,-49.5244876],[-72.9837419,-49.5226202],[-72.9864853,-49.521155],[-72.9908037,-49.5217713],[-72.9936382,-49.5206147],[-72.9937058,-49.5186545],[-72.9905087,-49.5158022],[-72.9936521,-49.5154284],[-72.9945174,-49.5138126],[-72.9988236,-49.5161227],[-72.9981154,-49.517063],[-72.9992334,-49.5178735],[-73.0149893,-49.5115983],[-73.0175427,-49.5115113],[-73.0037377,-49.5017485],[-73.0021494,-49.4979027],[-73.0030802,-49.4971083],[-72.9997516,-49.4947582],[-73.0007171,-49.4936624],[-72.9874215,-49.4805856],[-72.967214,-49.4811942],[-73.0344497,-49.4235161],[-72.9882137,-49.328479],[-72.98814,-49.2868403],[-72.9807961,-49.2868491],[-72.975897,-49.2854827],[-72.9650314,-49.2795477],[-72.9597917,-49.2686191],[-72.951033,-49.2583567],[-72.9472144,-49.2469725],[-73.0399831,-49.2435003],[-73.0434078,-49.2692817],[-73.0394751,-49.2679936],[-73.0364254,-49.2732631],[-73.0419455,-49.2729014],[-73.04,-49.2769444],[-73.0866667,-49.2838889],[-73.1491389,-49.2838889],[-73.4730702,-49.204718],[-73.4757266,-49.2184015],[-73.4947086,-49.2420221],[-73.4964176,-49.2514215],[-73.4964176,-49.2683282],[-73.4934268,-49.2727227],[-73.4820133,-49.2735162],[-73.4707218,-49.2788263],[-73.4594303,-49.287127],[-73.4566226,-49.2918267],[-73.4569889,-49.294024],[-73.4557071,-49.2965265],[-73.4518009,-49.2986017],[-73.4361148,-49.2976251],[-73.4342227,-49.3014093],[-73.4345279,-49.3065362],[-73.4320255,-49.3141046],[-73.4292179,-49.3152032],[-73.4187198,-49.3155084],[-73.410297,-49.3194146],[-73.4149356,-49.3255182],[-73.4162174,-49.3333307],[-73.4196964,-49.3380304],[-73.4272037,-49.3410211],[-73.4287906,-49.3440118],[-73.4253116,-49.3524347],[-73.4301944,-49.3607354],[-73.4303165,-49.3643976],[-73.4282413,-49.3675103],[-73.4257389,-49.3769098],[-73.4270206,-49.3844171],[-73.4253116,-49.3886285],[-73.425922,-49.3919244],[-73.4273258,-49.3936334],[-73.4344058,-49.393023],[-73.4597354,-49.4002252],[-73.4674269,-49.4055909],[-73.4680362,-49.410235],[-73.4716983,-49.4141412],[-73.4732242,-49.4181085],[-73.4749332,-49.4196954],[-73.4840885,-49.4221978],[-73.4901309,-49.4287286],[-73.490192,-49.4317193],[-73.4876895,-49.4356256],[-73.4793888,-49.4370294],[-73.4735904,-49.4413018],[-73.4782901,-49.4478936],[-73.4793277,-49.4613214],[-73.4699283,-49.4697442],[-73.4684024,-49.4754205],[-73.4633975,-49.4801202],[-73.4635196,-49.4825006],[-73.4723087,-49.4846978],[-73.479816,-49.4915948],[-73.4828067,-49.4973321],[-73.4875064,-49.5005059],[-73.5103336,-49.4970269],[-73.528339,-49.500628],[-73.5393253,-49.4982476],[-73.5445133,-49.5047174],[-73.5415225,-49.5191217],[-73.5390201,-49.5240045],[-73.5399356,-49.526629],[-73.5471378,-49.5329156],[-73.5493961,-49.5381036],[-73.5453067,-49.544024],[-73.5454288,-49.5503106],[-73.5404239,-49.5553155],[-73.5357242,-49.5640435],[-73.5260196,-49.5684991],[-73.5042911,-49.5731378],[-73.491901,-49.5792413],[-73.4840885,-49.5869928],[-73.4784122,-49.5946222],[-73.467609,-49.6145196],[-73.4633975,-49.6189142],[-73.460712,-49.6245294],[-73.4605899,-49.6348443],[-73.4638248,-49.6424127],[-73.4953189,-49.6613946],[-73.5017276,-49.6612115],[-73.5042911,-49.6629205],[-73.505817,-49.6662164],[-73.4984928,-49.6823297],[-73.4983097,-49.6917291],[-73.5080142,-49.7014337],[-73.5088077,-49.7052179],[-73.5074039,-49.7079034],[-73.5042301,-49.7094293],[-73.4940982,-49.7113214],[-73.486835,-49.7157159],[-73.4784122,-49.7165094],[-73.4760929,-49.7179132],[-73.4680973,-49.733294],[-73.458942,-49.745318],[-73.4492374,-49.7530084],[-73.4384952,-49.7578302],[-73.4417911,-49.7603936],[-73.4517398,-49.7639947],[-73.4599185,-49.771502],[-73.4659,-49.7736993],[-73.4616886,-49.7826104],[-73.4471655,-49.7919038],[-73.446393,-49.7950343],[-73.4473264,-49.7970081],[-73.4517253,-49.7988364],[-73.461467,-49.7999306],[-73.4678292,-49.8043416],[-73.4715629,-49.8047675],[-73.4803176,-49.8101543],[-73.4866315,-49.8117259],[-73.490746,-49.8165616],[-73.4914756,-49.8191852],[-73.490274,-49.8252141],[-73.4930152,-49.8289585],[-73.4857249,-49.8337579],[-73.4833968,-49.8365778],[-73.4833324,-49.838664],[-73.4888792,-49.8470462],[-73.4890562,-49.8526497],[-73.494603,-49.8547042],[-73.4972906,-49.8593177],[-73.5003054,-49.8612612],[-73.4991896,-49.8672296],[-73.5008741,-49.8698158],[-73.5053372,-49.8722844],[-73.5102832,-49.8785349],[-73.5107339,-49.8803186],[-73.5078693,-49.8855795],[-73.50685,-49.8917384],[-73.513062,-49.8962067],[-73.5292411,-49.8986014],[-73.5381299,-49.9036565],[-73.5491377,-49.9068869],[-73.5485423,-49.9093363],[-73.5510528,-49.912131],[-73.5533488,-49.9191777],[-73.5560739,-49.922818],[-73.5556448,-49.9305468],[-73.557415,-49.9347526],[-73.5571361,-49.9371557],[-73.5605157,-49.9422654],[-73.5605371,-49.9424656]]]}},{"type":"Feature","properties":{"country":"Albania","name":"Albanian Alps National Park","nationalParkName":"Albanian Alps National Park","source":"OpenStreetMap Nominatim","sourceElementId":"relation/19370005","sourceName":"Parku Kombëtar Alpet e Shqipërisë, Qarku i Shkodrës, Shqipëria Veriore, Shqipëria","sourceUrl":"https://www.openstreetmap.org/relation/19370005"},"geometry":{"type":"Polygon","coordinates":[[[19.5228878,42.3440765],[19.5319051,42.3393402],[19.5445178,42.3296436],[19.5496246,42.3270437],[19.549373,42.3226834],[19.5451707,42.3165806],[19.5485734,42.3184152],[19.5446602,42.3145217],[19.5613191,42.3137597],[19.5811306,42.3173375],[19.5934811,42.3085234],[19.5962103,42.3041458],[19.6036186,42.2998251],[19.6207376,42.2938838],[19.6277091,42.2939135],[19.6319739,42.2946306],[19.643464,42.2999435],[19.6664289,42.3046781],[19.6785613,42.3125605],[19.6916832,42.3155738],[19.7061391,42.3250044],[19.7104391,42.3291831],[19.7226915,42.332199],[19.7295381,42.3356544],[19.7348498,42.3399687],[19.7413805,42.3424186],[19.7549989,42.3448202],[19.7680633,42.3410814],[19.7881573,42.3401692],[19.7985674,42.342782],[19.8073821,42.3495075],[19.8090124,42.3525283],[19.8177921,42.3612553],[19.8217013,42.3688052],[19.8253625,42.3715963],[19.8235114,42.3803385],[19.8276285,42.3858878],[19.8334437,42.3909535],[19.8346462,42.3898393],[19.8462757,42.3909582],[19.8484909,42.3898541],[19.8564227,42.3900587],[19.8637087,42.3886292],[19.8619234,42.3939934],[19.8714879,42.3973421],[19.8779147,42.3967794],[19.8871738,42.3983716],[19.8903023,42.4029077],[19.8975233,42.4052303],[19.9000123,42.4077574],[19.9050738,42.4080562],[19.9111983,42.4054862],[19.9111117,42.4007293],[19.9146898,42.3988858],[19.9161073,42.3950193],[19.9181633,42.3932865],[19.9276558,42.3911228],[19.9314101,42.3887798],[19.9391375,42.3911045],[19.9428095,42.3936416],[19.9565508,42.3897624],[19.9662801,42.3833422],[19.9727959,42.3875311],[19.974356,42.3850419],[19.9768881,42.3850645],[19.9784296,42.3837015],[19.9840001,42.383751],[19.9935817,42.3863388],[20.0021094,42.3809063],[20.0063313,42.3808178],[20.0122096,42.382746],[20.0149457,42.3805167],[20.0195226,42.3793043],[20.0331498,42.3794201],[20.0529911,42.3826576],[20.0559101,42.3873719],[20.062637,42.3921063],[20.0564293,42.3956272],[20.0543083,42.3948914],[20.0502256,42.3957196],[20.039651,42.4028147],[20.032255,42.4047638],[20.0181541,42.413982],[20.0037227,42.4193167],[20.0011317,42.4237477],[19.9919019,42.4309937],[19.9891249,42.4348481],[19.9648148,42.438941],[19.9599287,42.4411953],[19.9518625,42.4480177],[19.9496138,42.4548929],[19.9484187,42.4567495],[19.9454873,42.4580156],[19.94565,42.4598847],[19.9541114,42.4644157],[19.959853,42.4692089],[19.9638302,42.475135],[19.9563452,42.4934558],[19.9516509,42.4955679],[19.9522117,42.496866],[19.9549147,42.4977526],[19.9548908,42.499189],[19.9496402,42.4997157],[19.948648,42.5009995],[19.9724515,42.505669],[19.9774333,42.5097361],[19.9809209,42.5101981],[19.9927962,42.5082919],[19.995976,42.5037226],[19.9928977,42.5019717],[19.992923,42.5003916],[19.9942957,42.4995417],[19.9979678,42.5005795],[20.0025232,42.5091159],[20.0005763,42.5098767],[19.9947364,42.5120125],[19.9844874,42.5121624],[19.9816712,42.5133152],[19.9714833,42.5122332],[19.9662798,42.5101915],[19.9529993,42.5113379],[19.9435247,42.5181272],[19.9406253,42.5183648],[19.9225081,42.5117337],[19.9171102,42.5078612],[19.9106301,42.5069003],[19.9062593,42.5076038],[19.9045338,42.5021073],[19.9053827,42.4957505],[19.9019354,42.4941845],[19.9027965,42.4904611],[19.899804,42.4887608],[19.8986469,42.4850023],[19.8952748,42.485245],[19.8926477,42.4880582],[19.888375,42.4901002],[19.885591,42.4938698],[19.8779213,42.4959085],[19.8754961,42.4947186],[19.8754235,42.4906347],[19.8728417,42.4894869],[19.8720933,42.4847858],[19.8682842,42.4829522],[19.8678529,42.4815624],[19.8646166,42.481181],[19.8583239,42.4841938],[19.8545263,42.4842041],[19.8491263,42.4786654],[19.8405872,42.4797462],[19.8363202,42.4787151],[19.8382057,42.4726957],[19.8312378,42.46642],[19.8071574,42.4735159],[19.8029443,42.4779145],[19.7926258,42.4814249],[19.7807069,42.4967814],[19.7664886,42.501692],[19.7611346,42.5091421],[19.7613179,42.5138421],[19.7585535,42.5229127],[19.7529453,42.5287147],[19.7526428,42.5324927],[19.7477872,42.5367607],[19.7434267,42.5451417],[19.7443147,42.5476638],[19.7496035,42.5506374],[19.7489677,42.5559525],[19.7539828,42.5643791],[19.7531089,42.5691198],[19.7480163,42.5734014],[19.7481745,42.5751944],[19.7532702,42.5775475],[19.7514812,42.5795573],[19.7515338,42.5816737],[19.7589776,42.5800597],[19.7610439,42.5834793],[19.7640599,42.5842185],[19.7743073,42.5803901],[19.7745596,42.5829043],[19.7759893,42.5842989],[19.7747825,42.5892062],[19.7756104,42.5915495],[19.7738014,42.5928224],[19.7724567,42.5961626],[19.7667096,42.5991077],[19.7617093,42.605985],[19.7603994,42.6105441],[19.7517191,42.6135808],[19.7535139,42.6193846],[19.7509143,42.6230837],[19.7496951,42.628379],[19.7520312,42.631138],[19.757232,42.6338286],[19.7560197,42.6371949],[19.7513809,42.6400767],[19.7383042,42.6427024],[19.7371346,42.6483544],[19.7330286,42.6569717],[19.7274468,42.6612428],[19.7235148,42.6611259],[19.7143842,42.6576092],[19.7133258,42.6561528],[19.7066394,42.654713],[19.7042205,42.6558895],[19.7034774,42.6526141],[19.698856,42.6497417],[19.7002122,42.6473334],[19.6999565,42.6450236],[19.6978548,42.64257],[19.6940965,42.6413426],[19.6899716,42.6379742],[19.6869654,42.6390396],[19.6850645,42.6340946],[19.6798908,42.6282635],[19.6736887,42.6283862],[19.6672165,42.6313876],[19.6621121,42.6282541],[19.6369031,42.6009691],[19.6272976,42.593325],[19.6101108,42.5755243],[19.6119939,42.5691307],[19.6098998,42.5623326],[19.6119136,42.5598868],[19.616097,42.5477653],[19.6148826,42.544638],[19.6174262,42.542569],[19.6124391,42.5395454],[19.6054034,42.5379178],[19.6075018,42.5356195],[19.6050254,42.534874],[19.6014983,42.5303569],[19.561945,42.5137546],[19.5626883,42.5007193],[19.5526389,42.487144],[19.5483153,42.4860493],[19.5450226,42.479085],[19.5381139,42.4707782],[19.5369044,42.4652806],[19.5334041,42.4621535],[19.5446773,42.4572507],[19.5545239,42.4567452],[19.5664093,42.4515924],[19.582338,42.4524657],[19.5907198,42.4494724],[19.5959182,42.4502024],[19.5864283,42.4354483],[19.577459,42.4241927],[19.5771986,42.4169068],[19.5744542,42.4125607],[19.567473,42.4075765],[19.5315362,42.3911339],[19.5312219,42.3895095],[19.5327588,42.3881788],[19.5436943,42.3821248],[19.544028,42.3808238],[19.5334512,42.376692],[19.5334595,42.3737304],[19.5302797,42.3648315],[19.5306395,42.3598129],[19.523761,42.353432],[19.5235255,42.345345],[19.5228878,42.3440765]]]}},{"type":"Feature","properties":{"country":"United Kingdom","name":"Cairngorms National Park","nationalParkName":"Cairngorms National Park","source":"OpenStreetMap Nominatim","sourceElementId":"relation/9838401","sourceName":"Cairngorms National Park, Alba / Scotland, United Kingdom","sourceUrl":"https://www.openstreetmap.org/relation/9838401"},"geometry":{"type":"Polygon","coordinates":[[[-4.4773663,56.9924639],[-4.4751673,56.9901],[-4.4683601,56.9872029],[-4.4558206,56.9836306],[-4.4430956,56.9838352],[-4.435456,56.982305],[-4.4203477,56.9742851],[-4.4047407,56.9755044],[-4.4056873,56.9739328],[-4.4101492,56.9724066],[-4.4094291,56.9703513],[-4.4124872,56.967959],[-4.4078969,56.9607079],[-4.3957006,56.9525649],[-4.3940108,56.948113],[-4.3909677,56.9465989],[-4.3922668,56.9440647],[-4.3801661,56.9504591],[-4.3781443,56.9487115],[-4.3679799,56.9517598],[-4.3585025,56.9504044],[-4.3524784,56.9521531],[-4.349795,56.9502979],[-4.3460061,56.9497087],[-4.3444821,56.9478002],[-4.3346466,56.9465755],[-4.3323618,56.9444484],[-4.3225826,56.9489187],[-4.3255533,56.9531486],[-4.3251951,56.9550812],[-4.2985538,56.9591746],[-4.2787952,56.9587165],[-4.2708145,56.9551821],[-4.2652518,56.9504151],[-4.2535768,56.9480108],[-4.24387,56.9475712],[-4.2420206,56.9421806],[-4.2366332,56.9430765],[-4.2472558,56.935741],[-4.248316,56.9318258],[-4.2389988,56.9203682],[-4.2383538,56.9166837],[-4.2392026,56.9140641],[-4.2524938,56.9131442],[-4.2679038,56.899421],[-4.2775614,56.8924475],[-4.289614,56.8908478],[-4.2995012,56.8877106],[-4.3027596,56.885089],[-4.3006456,56.8770493],[-4.3066815,56.8728001],[-4.3090032,56.8696045],[-4.3127736,56.8592885],[-4.3115803,56.8574387],[-4.3059853,56.8541925],[-4.304487,56.8510682],[-4.3111101,56.8467815],[-4.3123289,56.8431464],[-4.3184695,56.8408892],[-4.324028,56.8411542],[-4.3261571,56.8385879],[-4.3297288,56.8369816],[-4.3307708,56.8340955],[-4.3304556,56.8236904],[-4.3218502,56.8249321],[-4.3129249,56.8284055],[-4.3066567,56.8246273],[-4.3021365,56.825322],[-4.295158,56.8185358],[-4.2886879,56.8154299],[-4.2702495,56.8133631],[-4.2576045,56.8164676],[-4.2528169,56.8162252],[-4.2519835,56.8174962],[-4.2303031,56.8225265],[-4.226862,56.821678],[-4.2175603,56.8269164],[-4.2144126,56.8251097],[-4.2116155,56.8258852],[-4.2074735,56.8251273],[-4.2045132,56.8231398],[-4.2009839,56.8232498],[-4.1808365,56.8172926],[-4.1710023,56.816251],[-4.1398963,56.8169861],[-4.098666,56.8045424],[-4.0651654,56.7984457],[-4.0441596,56.7977932],[-4.020241,56.7925629],[-4.0167826,56.7908218],[-4.0134109,56.7864148],[-4.002815,56.7795901],[-3.9679345,56.7676248],[-3.9569498,56.7666783],[-3.9511247,56.7647541],[-3.9454181,56.766452],[-3.9343095,56.7652112],[-3.9273326,56.7663735],[-3.9228495,56.7686691],[-3.9116173,56.7658936],[-3.8963525,56.7684493],[-3.8904549,56.7676813],[-3.8816573,56.7645038],[-3.8599214,56.7642758],[-3.8371918,56.7579291],[-3.8158959,56.7567992],[-3.8098117,56.7526077],[-3.7969566,56.7496556],[-3.7889722,56.7458045],[-3.7702824,56.7409753],[-3.7688113,56.7415609],[-3.769719,56.7436126],[-3.7745407,56.7469624],[-3.7667969,56.753277],[-3.767385,56.7546568],[-3.7664427,56.7555351],[-3.7785838,56.7633023],[-3.7734828,56.7664288],[-3.7717093,56.7697227],[-3.7672216,56.7712901],[-3.7666443,56.7742813],[-3.7512871,56.7858561],[-3.7174154,56.7856339],[-3.7140602,56.7895945],[-3.7074661,56.79055],[-3.7072695,56.7919693],[-3.6982373,56.7948987],[-3.6906213,56.7995918],[-3.6786646,56.8017234],[-3.670102,56.8005677],[-3.6607002,56.8054492],[-3.6491422,56.8045381],[-3.6466344,56.8058509],[-3.6440303,56.8107788],[-3.6398235,56.80905],[-3.6354734,56.8051025],[-3.6275953,56.8062481],[-3.6185483,56.8045502],[-3.6084006,56.7979073],[-3.5994116,56.7955733],[-3.5922399,56.7957448],[-3.5809757,56.7923738],[-3.5717515,56.8011888],[-3.5698642,56.8011238],[-3.569074,56.8060197],[-3.5588483,56.8091131],[-3.5539701,56.808064],[-3.5473893,56.810004],[-3.5436099,56.8136776],[-3.543251,56.8165634],[-3.5383877,56.8212157],[-3.5245349,56.8161567],[-3.5189968,56.8114283],[-3.5105471,56.8072747],[-3.5095214,56.8049825],[-3.4982192,56.8069965],[-3.4916848,56.8014459],[-3.4863078,56.8006835],[-3.481713,56.7931775],[-3.4722124,56.7951499],[-3.4610508,56.7931647],[-3.4575406,56.7903414],[-3.4600648,56.7863266],[-3.448155,56.7767105],[-3.4451335,56.7758856],[-3.4407996,56.7697601],[-3.4372766,56.7685808],[-3.4288158,56.7685668],[-3.414236,56.7625595],[-3.410322,56.7623026],[-3.411142,56.7594499],[-3.4102357,56.7569106],[-3.4072272,56.7557529],[-3.4061341,56.7533837],[-3.4011128,56.7526374],[-3.3959069,56.7561142],[-3.3914864,56.761386],[-3.3853216,56.7616712],[-3.3897975,56.7692448],[-3.3795083,56.7771128],[-3.3800093,56.7813974],[-3.3741186,56.78927],[-3.3702664,56.7902513],[-3.3667477,56.7932054],[-3.3671698,56.795357],[-3.3626006,56.8000655],[-3.3592598,56.8014137],[-3.3575555,56.804779],[-3.3580088,56.8064452],[-3.3628067,56.8082257],[-3.3667311,56.8134477],[-3.3600204,56.817892],[-3.3516888,56.8202732],[-3.3474827,56.813882],[-3.3433335,56.810575],[-3.3426963,56.8054835],[-3.3133078,56.8058314],[-3.3079912,56.8074561],[-3.3020644,56.8126959],[-3.2827396,56.8154202],[-3.2792203,56.8177146],[-3.2787767,56.8231688],[-3.2765046,56.8256754],[-3.2622657,56.8279739],[-3.253549,56.8254264],[-3.2497973,56.8195361],[-3.2440754,56.8170948],[-3.2403948,56.814038],[-3.2351315,56.8123056],[-3.2238009,56.8040889],[-3.2201272,56.7978191],[-3.2200422,56.7952024],[-3.2214899,56.7930467],[-3.2206175,56.7878019],[-3.22271,56.7848709],[-3.2220746,56.7835745],[-3.2156265,56.7848384],[-3.207917,56.792346],[-3.2060695,56.7955763],[-3.2004388,56.7993854],[-3.1867313,56.7903369],[-3.176419,56.7864259],[-3.1741334,56.7866008],[-3.1511136,56.7922883],[-3.1383796,56.8013283],[-3.143298,56.8076792],[-3.1437941,56.8187816],[-3.1409309,56.8226508],[-3.1406613,56.8389528],[-3.1384661,56.8388101],[-3.1274681,56.831528],[-3.1196879,56.8287192],[-3.1062155,56.8283869],[-3.0903778,56.8211322],[-3.0771609,56.822511],[-3.0668443,56.8259424],[-3.0604514,56.829841],[-3.0442713,56.8248754],[-3.0425557,56.8256036],[-3.0387298,56.8284909],[-3.0360605,56.8339858],[-3.03065,56.8481165],[-3.0311377,56.8563845],[-3.0291806,56.8586549],[-3.0404427,56.8628598],[-3.040036,56.8678864],[-3.0264484,56.8717485],[-3.0172485,56.8775734],[-3.0040614,56.8782748],[-2.9936569,56.8766643],[-2.9802682,56.8723162],[-2.9707391,56.8676067],[-2.9641023,56.8687816],[-2.9570683,56.8678058],[-2.9485343,56.8683391],[-2.9278546,56.8616598],[-2.9178133,56.8634193],[-2.9134156,56.865324],[-2.8925514,56.8649131],[-2.8859878,56.8660133],[-2.8840553,56.8671876],[-2.884426,56.8716679],[-2.8912041,56.8781773],[-2.8954083,56.8800188],[-2.8988325,56.8857828],[-2.905287,56.8863746],[-2.9075116,56.8884911],[-2.9105877,56.8885558],[-2.8973661,56.8964712],[-2.8896143,56.897136],[-2.8915918,56.9022431],[-2.8963973,56.903616],[-2.9070592,56.9113535],[-2.9076624,56.9137564],[-2.9062432,56.9151499],[-2.9041378,56.9228378],[-2.9059145,56.9304135],[-2.9033676,56.9308675],[-2.9021003,56.9327948],[-2.9050485,56.9356316],[-2.9041763,56.9377166],[-2.9076411,56.942804],[-2.9200385,56.9508079],[-2.9232237,56.9559465],[-2.9225182,56.9619407],[-2.924109,56.9723957],[-2.9162009,56.9756693],[-2.9103067,56.9758193],[-2.9129363,56.9817256],[-2.8997306,56.9857818],[-2.8923756,56.986823],[-2.8842353,56.9857016],[-2.8746564,56.9803878],[-2.8667571,56.9804665],[-2.8614306,56.9788513],[-2.8580407,56.9743585],[-2.8511456,56.972611],[-2.8407241,56.9736798],[-2.8310928,56.9780398],[-2.8296982,56.9805366],[-2.8314693,56.9817886],[-2.843116,56.985054],[-2.8477824,56.9948269],[-2.8467682,57.0005832],[-2.8431427,57.0034622],[-2.8308107,57.0090642],[-2.8184513,57.0115481],[-2.8178796,57.0245069],[-2.8196513,57.0277755],[-2.8114522,57.0315606],[-2.8095404,57.0343108],[-2.8107608,57.0365278],[-2.8108596,57.0412955],[-2.8025514,57.0465702],[-2.80027,57.0493428],[-2.8074351,57.0510929],[-2.8148082,57.0513007],[-2.8211589,57.0549537],[-2.8207375,57.0571103],[-2.8182023,57.0588135],[-2.8210447,57.0607078],[-2.8180311,57.0632173],[-2.8177737,57.0649201],[-2.8218659,57.0693617],[-2.8410066,57.0705416],[-2.8498719,57.0695837],[-2.8691752,57.0719337],[-2.883889,57.0722907],[-2.87507,57.0752074],[-2.8735749,57.0771892],[-2.8685705,57.0793268],[-2.8775903,57.0797458],[-2.8806612,57.0808998],[-2.8845281,57.0845013],[-2.8850309,57.0870312],[-2.8825744,57.0904305],[-2.8834287,57.0919362],[-2.8761928,57.1027603],[-2.8778804,57.1040006],[-2.8770414,57.1048977],[-2.8779991,57.1059514],[-2.8875609,57.1061564],[-2.8908234,57.1100339],[-2.8992675,57.1063738],[-2.9107218,57.1060604],[-2.917287,57.1083444],[-2.9220718,57.1138636],[-2.9310843,57.1142471],[-2.9382018,57.1197616],[-2.9448446,57.1207616],[-2.9472179,57.122368],[-2.9713973,57.1228675],[-2.9747844,57.1261151],[-2.9845656,57.1296956],[-2.9968691,57.1280263],[-3.0023672,57.1256582],[-3.0063343,57.128557],[-3.0075718,57.1298662],[-2.9982918,57.1439642],[-2.9781713,57.1544623],[-2.9756579,57.1611609],[-2.9623303,57.1642793],[-2.9593981,57.1667037],[-2.9402771,57.1692629],[-2.9423217,57.1806461],[-2.9491124,57.1827019],[-2.956078,57.1870057],[-2.9552637,57.1887297],[-2.9584771,57.1942064],[-2.9510445,57.1975614],[-2.949251,57.1994498],[-2.9497371,57.200446],[-2.9567733,57.2040864],[-2.9742936,57.2068579],[-2.9837347,57.2110627],[-2.9751613,57.218584],[-2.9748833,57.2217474],[-2.9796216,57.2289626],[-2.9916363,57.2380147],[-3.0146972,57.2477596],[-3.0193627,57.252148],[-3.0190754,57.2616885],[-3.0269319,57.2636889],[-3.0297349,57.2669944],[-3.0313062,57.2724883],[-3.037677,57.2743539],[-3.0416307,57.2778157],[-3.0438177,57.2787768],[-3.0540514,57.2751294],[-3.0660827,57.2771076],[-3.0671224,57.2780735],[-3.06646,57.2800537],[-3.0708389,57.281541],[-3.0889682,57.2811989],[-3.0923957,57.2843066],[-3.102223,57.28122],[-3.1041818,57.2784813],[-3.1102197,57.2771505],[-3.1192213,57.28167],[-3.1267623,57.2788989],[-3.1284226,57.2761506],[-3.1436189,57.2779861],[-3.1426666,57.2819493],[-3.1435625,57.2853639],[-3.1532173,57.2895185],[-3.1701629,57.2923093],[-3.1734341,57.2950835],[-3.1828838,57.2956962],[-3.1812542,57.2976544],[-3.1827413,57.3009972],[-3.1900425,57.304783],[-3.1973912,57.3041753],[-3.2031655,57.3016437],[-3.2095001,57.3014451],[-3.2122045,57.2990094],[-3.2223973,57.295296],[-3.2366342,57.295677],[-3.2430571,57.2993483],[-3.2494949,57.2997869],[-3.2504039,57.3009161],[-3.254835,57.3005474],[-3.2575787,57.2988705],[-3.2629024,57.3008312],[-3.269026,57.3052467],[-3.2688502,57.3072981],[-3.2744889,57.3084089],[-3.2797312,57.3128964],[-3.3026898,57.3121474],[-3.3015755,57.3142403],[-3.3041827,57.3151553],[-3.3048231,57.3176361],[-3.3070383,57.3186567],[-3.3071478,57.3220342],[-3.3130946,57.3247644],[-3.3128902,57.3269269],[-3.3167534,57.32881],[-3.3168573,57.3308395],[-3.31937,57.3316931],[-3.3184942,57.3357748],[-3.3237857,57.3370222],[-3.3237432,57.3404804],[-3.3260868,57.3415387],[-3.3247603,57.3426526],[-3.331376,57.3475916],[-3.33152,57.3512791],[-3.3341605,57.3527289],[-3.335055,57.3546598],[-3.338207,57.3523757],[-3.3404097,57.3523974],[-3.3414683,57.3539542],[-3.349339,57.3531594],[-3.3547648,57.3548384],[-3.3562688,57.3571349],[-3.3608688,57.3593189],[-3.365383,57.3541201],[-3.363762,57.3506518],[-3.3642256,57.3473977],[-3.3680643,57.3448459],[-3.3748043,57.3456863],[-3.3799596,57.3443268],[-3.3804251,57.3431557],[-3.3844359,57.3433132],[-3.4138667,57.3518815],[-3.4205013,57.3569105],[-3.4243566,57.3543759],[-3.4260036,57.3510497],[-3.4314307,57.3510456],[-3.4353957,57.3427642],[-3.4499565,57.3485267],[-3.4591913,57.359629],[-3.4675898,57.3644562],[-3.46551,57.3674591],[-3.4661937,57.3696053],[-3.4650533,57.3706585],[-3.4686035,57.3745132],[-3.4685886,57.3789554],[-3.4665261,57.3815496],[-3.470037,57.3852524],[-3.4755308,57.3874463],[-3.4812468,57.3845639],[-3.4894029,57.3835392],[-3.4951246,57.3887751],[-3.5022619,57.3899009],[-3.509018,57.3894376],[-3.5239405,57.385384],[-3.5274689,57.3858872],[-3.5362832,57.3899324],[-3.5394186,57.3899052],[-3.5508859,57.3965615],[-3.5476958,57.4036493],[-3.5495718,57.4063598],[-3.5671516,57.4106586],[-3.5793245,57.406941],[-3.5946585,57.4050839],[-3.5980452,57.4019508],[-3.5990192,57.395618],[-3.6043427,57.392864],[-3.6111933,57.3932503],[-3.6327619,57.3911895],[-3.6320914,57.3870245],[-3.6337232,57.3841997],[-3.6339564,57.3801859],[-3.6321079,57.3761474],[-3.6293396,57.3743962],[-3.6223106,57.3740343],[-3.6216096,57.3731419],[-3.6407387,57.3620611],[-3.6538321,57.3608383],[-3.6672731,57.3624091],[-3.6885702,57.3595268],[-3.6983733,57.352739],[-3.7010872,57.349612],[-3.7236502,57.3525141],[-3.7257418,57.3502272],[-3.731196,57.3493202],[-3.7356141,57.3450994],[-3.7391237,57.3449321],[-3.7515297,57.3515348],[-3.7581616,57.3522744],[-3.7669171,57.3514386],[-3.7771513,57.3539093],[-3.7876475,57.3591766],[-3.7919427,57.3590957],[-3.7953953,57.3577391],[-3.7968524,57.3560543],[-3.7963607,57.3549916],[-3.8088142,57.3488702],[-3.8087499,57.3475637],[-3.8384365,57.3447268],[-3.8432913,57.3394631],[-3.8530271,57.3349802],[-3.8566186,57.3355929],[-3.8648591,57.3273171],[-3.8867015,57.3221656],[-3.8871884,57.3196622],[-3.8893825,57.3187497],[-3.8996095,57.3168365],[-3.9023346,57.315155],[-3.905132,57.3089318],[-3.9125205,57.3065612],[-3.9148573,57.304196],[-3.9373194,57.3003573],[-3.9526751,57.2926075],[-3.9509113,57.2916364],[-3.9512074,57.2892126],[-3.9533379,57.2879909],[-3.9596733,57.2874168],[-3.9555099,57.27928],[-3.9595483,57.2726796],[-3.954715,57.2704965],[-3.9341412,57.2690976],[-3.929457,57.2726642],[-3.9233342,57.2724813],[-3.9226043,57.2668179],[-3.9106923,57.2610599],[-3.9077154,57.2584096],[-3.9042736,57.2587589],[-3.9053108,57.2563412],[-3.9044727,57.2554489],[-3.9093818,57.2550096],[-3.9132683,57.2516362],[-3.9221837,57.2512736],[-3.9232107,57.2493838],[-3.9263819,57.2481214],[-3.9251783,57.2479575],[-3.9260426,57.2451771],[-3.922947,57.2369733],[-3.9187209,57.2348711],[-3.9186302,57.2333036],[-3.9228776,57.2289037],[-3.9222238,57.2239214],[-3.9114,57.2215037],[-3.8999015,57.2211789],[-3.9009881,57.2124855],[-3.9089004,57.2053524],[-3.9075886,57.1976617],[-3.9084169,57.19589],[-3.9162067,57.1903603],[-3.9264938,57.1870662],[-3.9336704,57.1808788],[-3.9426186,57.1769499],[-3.951522,57.1787174],[-3.9603258,57.1767839],[-3.9626818,57.1784971],[-3.9656165,57.1785996],[-3.969021,57.1765205],[-3.9707534,57.17301],[-3.9848817,57.1749224],[-3.9814793,57.1691776],[-3.9816128,57.1675827],[-3.9863172,57.1600509],[-3.9908418,57.159494],[-3.9985098,57.1609248],[-4.0016202,57.155683],[-4.0046247,57.1534514],[-4.0192514,57.1498684],[-4.0256369,57.1490861],[-4.0293499,57.1500451],[-4.0327078,57.1461572],[-4.0390801,57.1435304],[-4.0490858,57.1420571],[-4.0541095,57.1425087],[-4.0627029,57.1493554],[-4.0647545,57.1493217],[-4.0676951,57.1460219],[-4.0832097,57.1361569],[-4.0901674,57.1360896],[-4.1004738,57.1399936],[-4.1093902,57.1366897],[-4.1381173,57.1333885],[-4.1402514,57.13254],[-4.138655,57.1291678],[-4.1482266,57.1251646],[-4.1481394,57.1240368],[-4.1534912,57.1224828],[-4.1619392,57.1264386],[-4.1716503,57.1271088],[-4.1827666,57.122868],[-4.1948935,57.1226384],[-4.1994438,57.1243715],[-4.215534,57.121146],[-4.2204813,57.1225623],[-4.2306659,57.1182029],[-4.2346219,57.1144057],[-4.2398306,57.1138194],[-4.2423221,57.1107554],[-4.2468787,57.1080704],[-4.251584,57.107665],[-4.2531121,57.1065677],[-4.2536774,57.103645],[-4.2615494,57.1001925],[-4.2606812,57.0984904],[-4.2696597,57.0988749],[-4.2783595,57.0939211],[-4.2855053,57.0966719],[-4.2928851,57.0954021],[-4.3037055,57.0901401],[-4.3070509,57.089908],[-4.3104194,57.0921047],[-4.311331,57.0947795],[-4.3094658,57.098696],[-4.3158966,57.0970309],[-4.3224695,57.0991024],[-4.326867,57.0972955],[-4.3296616,57.0939102],[-4.3282558,57.0911877],[-4.3361843,57.0875018],[-4.3351961,57.0854439],[-4.3382661,57.0821994],[-4.3410336,57.0818259],[-4.3431288,57.0793014],[-4.3467167,57.0791759],[-4.3527408,57.0751443],[-4.3527738,57.0722782],[-4.3514525,57.071747],[-4.3545017,57.0716021],[-4.3553949,57.0691267],[-4.361817,57.0650006],[-4.3633494,57.0626486],[-4.3735185,57.0574132],[-4.3733827,57.0538319],[-4.3702883,57.052345],[-4.3645592,57.0518738],[-4.3661815,57.0478012],[-4.3712277,57.0414199],[-4.388807,57.0349929],[-4.4051193,57.0309803],[-4.4096443,57.028471],[-4.4108142,57.0263383],[-4.4240601,57.0217729],[-4.4308404,57.017956],[-4.4326175,57.0130472],[-4.4471288,57.0054677],[-4.4461304,57.0018761],[-4.4472499,57.0002641],[-4.4683236,56.9973386],[-4.4747695,56.994358],[-4.4773663,56.9924639]]]}},{"type":"Feature","properties":{"country":"Ireland","name":"Killarney National Park","nationalParkName":"Killarney National Park","source":"OpenStreetMap Nominatim","sourceElementId":"relation/7508533","sourceName":"Killarney National Park, County Kerry, Munster, Éire / Ireland","sourceUrl":"https://www.openstreetmap.org/relation/7508533"},"geometry":{"type":"MultiPolygon","coordinates":[[[[-9.6362947,51.9769085],[-9.6350336,51.9751699],[-9.6268869,51.9741038],[-9.6286448,51.9705051],[-9.635087,51.967076],[-9.6346135,51.9644682],[-9.6315671,51.9634079],[-9.6274897,51.9645965],[-9.6237631,51.9682972],[-9.6202776,51.969094],[-9.6181512,51.9682972],[-9.6130545,51.9618478],[-9.6131033,51.9596143],[-9.6213413,51.9572489],[-9.626489,51.95275],[-9.6226126,51.9531551],[-9.6180979,51.9565204],[-9.6111994,51.9582546],[-9.6003248,51.951638],[-9.6027648,51.9467602],[-9.5935966,51.9458576],[-9.5830884,51.9487311],[-9.5841398,51.950166],[-9.5821851,51.9499259],[-9.582621,51.9508385],[-9.5797549,51.9531881],[-9.5807453,51.9515147],[-9.5786987,51.951013],[-9.581024,51.9498487],[-9.5810593,51.9478524],[-9.5833136,51.9464025],[-9.5832168,51.9426162],[-9.5745165,51.9454595],[-9.5716566,51.9418366],[-9.5654645,51.9418851],[-9.5640739,51.9406558],[-9.5655933,51.9390202],[-9.5648259,51.9388001],[-9.5522129,51.9414571],[-9.545342,51.9416469],[-9.5358611,51.9467459],[-9.5330355,51.9471699],[-9.5334505,51.9460978],[-9.5319861,51.9458531],[-9.5198464,51.9503656],[-9.5039999,51.9580984],[-9.493904,51.9591695],[-9.4880461,51.9678461],[-9.4846558,51.9703512],[-9.4853854,51.9728694],[-9.4911609,51.9739441],[-9.4880328,51.9761262],[-9.4878303,51.9777166],[-9.4907698,51.9995613],[-9.4886562,52.0022105],[-9.4890765,52.0039209],[-9.4931467,52.003579],[-9.4922671,52.0046835],[-9.4960066,52.0045635],[-9.4966839,52.005843],[-9.4940589,52.007376],[-9.4890566,52.0057287],[-9.4810297,52.0091472],[-9.4822012,52.0108388],[-9.4815946,52.0131701],[-9.4770271,52.0180602],[-9.4747724,52.022396],[-9.4770349,52.0205601],[-9.4783182,52.0211357],[-9.4815868,52.0194848],[-9.4831097,52.0205708],[-9.4822812,52.0221908],[-9.4787354,52.0224899],[-9.4772287,52.0254868],[-9.4830667,52.0272803],[-9.4867055,52.0268827],[-9.4854453,52.0257935],[-9.4866322,52.0251166],[-9.4895758,52.0256987],[-9.4882262,52.0272839],[-9.4890575,52.0299769],[-9.4840974,52.0302248],[-9.4851717,52.0316515],[-9.4834343,52.0317564],[-9.4883768,52.037476],[-9.4955287,52.0356657],[-9.5016273,52.0378088],[-9.5023317,52.0373392],[-9.5015245,52.0369005],[-9.5044884,52.0353481],[-9.5105008,52.0364589],[-9.5112824,52.0384999],[-9.5125907,52.0373812],[-9.5102726,52.0359904],[-9.515544,52.0351878],[-9.514881,52.0340497],[-9.522017,52.0373203],[-9.5216038,52.0402574],[-9.5245828,52.0411462],[-9.5233975,52.0431527],[-9.5263895,52.0446506],[-9.5241275,52.0455295],[-9.5261486,52.0460511],[-9.5199303,52.0494482],[-9.5199809,52.0515976],[-9.5174222,52.0535449],[-9.508018,52.0557551],[-9.5070858,52.0571507],[-9.5146412,52.0570935],[-9.5185673,52.0582465],[-9.5229279,52.0673173],[-9.5278764,52.0670578],[-9.5283781,52.0680662],[-9.5332257,52.0688341],[-9.5338314,52.0641807],[-9.5366307,52.0635344],[-9.5388382,52.0596362],[-9.5395867,52.06073],[-9.5385175,52.0610744],[-9.5411193,52.0626426],[-9.5448157,52.062627],[-9.5485978,52.0613132],[-9.5487677,52.0588717],[-9.5500274,52.0585352],[-9.5528721,52.0593786],[-9.5541712,52.0619827],[-9.5585173,52.0630417],[-9.5615769,52.0615843],[-9.5611264,52.0623946],[-9.5624863,52.0622792],[-9.5617507,52.0608439],[-9.5633222,52.059456],[-9.5668902,52.0632988],[-9.5766952,52.0661868],[-9.5864112,52.0660667],[-9.593844,52.0631842],[-9.6056602,52.0611183],[-9.6073149,52.0600061],[-9.6064563,52.0593835],[-9.6124638,52.0563202],[-9.6101454,52.0572286],[-9.6087405,52.0560712],[-9.6072357,52.0565434],[-9.6061668,52.0556628],[-9.6062291,52.0530465],[-9.6038526,52.0538952],[-9.601793,52.0513042],[-9.5969227,52.0500946],[-9.5928734,52.0456629],[-9.5963176,52.0449506],[-9.6024569,52.046887],[-9.6059827,52.046795],[-9.6066285,52.0437487],[-9.6047396,52.0417362],[-9.6060329,52.0396218],[-9.6049856,52.0377819],[-9.6062234,52.0365575],[-9.6088362,52.0266251],[-9.6077698,52.0266598],[-9.6035815,52.0123792],[-9.6110365,52.014347],[-9.6181175,52.0114679],[-9.6237261,52.0073649],[-9.620579,51.9998961],[-9.6207105,51.9892194],[-9.6192199,51.9838193],[-9.6085442,51.9841973],[-9.6141004,51.9804296],[-9.6121284,51.9791372],[-9.6174411,51.9783818],[-9.6200717,51.9792652],[-9.6180163,51.9806697],[-9.6267101,51.9814693],[-9.6338962,51.9803063],[-9.633349,51.9779521],[-9.6362695,51.9770085],[-9.6362947,51.9769085]],[[-9.5997939,51.9640269],[-9.5940468,51.9678793],[-9.5917962,51.9652237],[-9.5785449,51.9642658],[-9.5981127,51.9589156],[-9.5995086,51.963589],[-9.5997939,51.9640269]],[[-9.4912753,52.0178336],[-9.4903871,52.021393],[-9.4840432,52.021187],[-9.4833945,52.0184539],[-9.4840505,52.0167775],[-9.4856842,52.0170032],[-9.4860779,52.0147449],[-9.488369,52.0141856],[-9.4869209,52.0157366],[-9.4880841,52.0188888],[-9.4883829,52.0163408],[-9.4906131,52.0163079],[-9.4897314,52.0174353],[-9.4912753,52.0178336]]],[[[-9.4836208,52.0403949],[-9.4803047,52.0386064],[-9.4780466,52.0407399],[-9.4809136,52.0421396],[-9.4829346,52.0419242],[-9.4835121,52.0407561],[-9.4836208,52.0403949]]]]}}]}
